{
  "type": "FeatureCollection",
  "features": [
    {
      "type": "Feature",
      "properties": {
        "norad_id": 67032,
        "name": "STARLINK-36131",
        "group": "last-30-days",
        "lat": 17.53623996643753,
        "lon": -93.61160946737961,
        "alt_km": 352.74166583009173,
        "timestamp": "2025-12-25T03:55:54.956362+00:00",
        "meta_object_name": "STARLINK-36131",
        "meta_object_id": "2025-294C",
        "meta_epoch": "2025-12-24T20:00:01.000224",
        "meta_mean_motion": 15.72855708,
        "meta_eccentricity": 0.0001517,
        "meta_inclination": 42.9995,
        "meta_ra_of_asc_node": 108.2083,
        "meta_arg_of_pericenter": 288.5093,
        "meta_mean_anomaly": 152.4436,
        "meta_ephemeris_type": 0,
        "meta_classification_type": "U",
        "meta_norad_cat_id": 67032,
        "meta_element_set_no": 999,
        "meta_rev_at_epoch": 205,
        "meta_bstar": -0.015447,
        "meta_mean_motion_dot": -0.01878808,
        "meta_mean_motion_ddot": 0,
        "tle_line1": "1 67032U 25294C   25358.83334491 -.01878808  00000+0 -15447-1 0  9991",
        "tle_line2": "2 67032  42.9995 108.2083 0001517 288.5093 152.4436 15.72855708  2059"
      },
      "geometry": {
        "type": "Point",
        "coordinates": [
          -93.61160946737961,
          17.53623996643753
        ]
      }
    },
    {
      "type": "Feature",
      "properties": {
        "norad_id": 67033,
        "name": "STARLINK-36137",
        "group": "last-30-days",
        "lat": 18.849795988163347,
        "lon": -95.27580800243673,
        "alt_km": 352.63340683762,
        "timestamp": "2025-12-25T03:55:54.956372+00:00",
        "meta_object_name": "STARLINK-36137",
        "meta_object_id": "2025-294D",
        "meta_epoch": "2025-12-24T20:00:01.000224",
        "meta_mean_motion": 15.72867713,
        "meta_eccentricity": 0.0001602,
        "meta_inclination": 42.9993,
        "meta_ra_of_asc_node": 108.2137,
        "meta_arg_of_pericenter": 291.6355,
        "meta_mean_anomaly": 147.247,
        "meta_ephemeris_type": 0,
        "meta_classification_type": "U",
        "meta_norad_cat_id": 67033,
        "meta_element_set_no": 999,
        "meta_rev_at_epoch": 205,
        "meta_bstar": -0.01549,
        "meta_mean_motion_dot": -0.01884232,
        "meta_mean_motion_ddot": 0,
        "tle_line1": "1 67033U 25294D   25358.83334491 -.01884232  00000+0 -15490-1 0  9998",
        "tle_line2": "2 67033  42.9993 108.2137 0001602 291.6355 147.2470 15.72867713  2058"
      },
      "geometry": {
        "type": "Point",
        "coordinates": [
          -95.27580800243673,
          18.849795988163347
        ]
      }
    },
    {
      "type": "Feature",
      "properties": {
        "norad_id": 67034,
        "name": "STARLINK-36140",
        "group": "last-30-days",
        "lat": 16.041182207698757,
        "lon": -91.76918280924265,
        "alt_km": 352.52733117413663,
        "timestamp": "2025-12-25T03:55:54.956382+00:00",
        "meta_object_name": "STARLINK-36140",
        "meta_object_id": "2025-294E",
        "meta_epoch": "2025-12-24T06:00:02.000160",
        "meta_mean_motion": 15.75310125,
        "meta_eccentricity": 0.00017081,
        "meta_inclination": 42.9998,
        "meta_ra_of_asc_node": 111.7344,
        "meta_arg_of_pericenter": 271.3703,
        "meta_mean_anomaly": 102.2206,
        "meta_ephemeris_type": 0,
        "meta_classification_type": "U",
        "meta_norad_cat_id": 67034,
        "meta_element_set_no": 999,
        "meta_rev_at_epoch": 196,
        "meta_bstar": -0.013995551,
        "meta_mean_motion_dot": -0.01893569,
        "meta_mean_motion_ddot": 0,
        "tle_line1": "1 67034U 25294E   25358.25002315 -.01893569  00000+0 -13996-1 0  9994",
        "tle_line2": "2 67034  42.9998 111.7344 0001708 271.3703 102.2206 15.75310125  1962"
      },
      "geometry": {
        "type": "Point",
        "coordinates": [
          -91.76918280924265,
          16.041182207698757
        ]
      }
    },
    {
      "type": "Feature",
      "properties": {
        "norad_id": 67035,
        "name": "STARLINK-36085",
        "group": "last-30-days",
        "lat": 13.301342393014517,
        "lon": -88.50184639295503,
        "alt_km": 353.4029663760293,
        "timestamp": "2025-12-25T03:55:54.956393+00:00",
        "meta_object_name": "STARLINK-36085",
        "meta_object_id": "2025-294F",
        "meta_epoch": "2025-12-24T20:00:01.000224",
        "meta_mean_motion": 15.72822157,
        "meta_eccentricity": 0.0001468,
        "meta_inclination": 42.9995,
        "meta_ra_of_asc_node": 108.1923,
        "meta_arg_of_pericenter": 288.3961,
        "meta_mean_anomaly": 159.1066,
        "meta_ephemeris_type": 0,
        "meta_classification_type": "U",
        "meta_norad_cat_id": 67035,
        "meta_element_set_no": 999,
        "meta_rev_at_epoch": 205,
        "meta_bstar": -0.015589,
        "meta_mean_motion_dot": -0.01891238,
        "meta_mean_motion_ddot": 0,
        "tle_line1": "1 67035U 25294F   25358.83334491 -.01891238  00000+0 -15589-1 0  9993",
        "tle_line2": "2 67035  42.9995 108.1923 0001468 288.3961 159.1066 15.72822157  2056"
      },
      "geometry": {
        "type": "Point",
        "coordinates": [
          -88.50184639295503,
          13.301342393014517
        ]
      }
    },
    {
      "type": "Feature",
      "properties": {
        "norad_id": 67036,
        "name": "STARLINK-36125",
        "group": "last-30-days",
        "lat": 14.730952870748707,
        "lon": -90.18862698167418,
        "alt_km": 353.21192913139566,
        "timestamp": "2025-12-25T03:55:54.956402+00:00",
        "meta_object_name": "STARLINK-36125",
        "meta_object_id": "2025-294G",
        "meta_epoch": "2025-12-24T20:00:01.000224",
        "meta_mean_motion": 15.72827092,
        "meta_eccentricity": 0.0001506,
        "meta_inclination": 42.9995,
        "meta_ra_of_asc_node": 108.1974,
        "meta_arg_of_pericenter": 289.7182,
        "meta_mean_anomaly": 155.5963,
        "meta_ephemeris_type": 0,
        "meta_classification_type": "U",
        "meta_norad_cat_id": 67036,
        "meta_element_set_no": 999,
        "meta_rev_at_epoch": 224,
        "meta_bstar": -0.015465,
        "meta_mean_motion_dot": -0.01878641,
        "meta_mean_motion_ddot": 0,
        "tle_line1": "1 67036U 25294G   25358.83334491 -.01878641  00000+0 -15465-1 0  9990",
        "tle_line2": "2 67036  42.9995 108.1974 0001506 289.7182 155.5963 15.72827092  2246"
      },
      "geometry": {
        "type": "Point",
        "coordinates": [
          -90.18862698167418,
          14.730952870748707
        ]
      }
    },
    {
      "type": "Feature",
      "properties": {
        "norad_id": 67037,
        "name": "STARLINK-35732",
        "group": "last-30-days",
        "lat": 11.80123371863818,
        "lon": -86.76736472961828,
        "alt_km": 353.6964413254127,
        "timestamp": "2025-12-25T03:55:54.956412+00:00",
        "meta_object_name": "STARLINK-35732",
        "meta_object_id": "2025-294H",
        "meta_epoch": "2025-12-24T20:00:01.000224",
        "meta_mean_motion": 15.72803025,
        "meta_eccentricity": 0.0001481,
        "meta_inclination": 42.9992,
        "meta_ra_of_asc_node": 108.1866,
        "meta_arg_of_pericenter": 290.6137,
        "meta_mean_anomaly": 159.1771,
        "meta_ephemeris_type": 0,
        "meta_classification_type": "U",
        "meta_norad_cat_id": 67037,
        "meta_element_set_no": 999,
        "meta_rev_at_epoch": 216,
        "meta_bstar": -0.01561,
        "meta_mean_motion_dot": -0.01892125,
        "meta_mean_motion_ddot": 0,
        "tle_line1": "1 67037U 25294H   25358.83334491 -.01892125  00000+0 -15610-1 0  9996",
        "tle_line2": "2 67037  42.9992 108.1866 0001481 290.6137 159.1771 15.72803025  2165"
      },
      "geometry": {
        "type": "Point",
        "coordinates": [
          -86.76736472961828,
          11.80123371863818
        ]
      }
    },
    {
      "type": "Feature",
      "properties": {
        "norad_id": 67038,
        "name": "STARLINK-35775",
        "group": "last-30-days",
        "lat": 10.427679885741828,
        "lon": -85.20633567290501,
        "alt_km": 353.90715896203164,
        "timestamp": "2025-12-25T03:55:54.956422+00:00",
        "meta_object_name": "STARLINK-35775",
        "meta_object_id": "2025-294J",
        "meta_epoch": "2025-12-24T20:00:01.000224",
        "meta_mean_motion": 15.72791288,
        "meta_eccentricity": 0.0001536,
        "meta_inclination": 42.9994,
        "meta_ra_of_asc_node": 108.1812,
        "meta_arg_of_pericenter": 290.3519,
        "meta_mean_anomaly": 161.5111,
        "meta_ephemeris_type": 0,
        "meta_classification_type": "U",
        "meta_norad_cat_id": 67038,
        "meta_element_set_no": 999,
        "meta_rev_at_epoch": 216,
        "meta_bstar": -0.015559,
        "meta_mean_motion_dot": -0.01885992,
        "meta_mean_motion_ddot": 0,
        "tle_line1": "1 67038U 25294J   25358.83334491 -.01885992  00000+0 -15559-1 0  9993",
        "tle_line2": "2 67038  42.9994 108.1812 0001536 290.3519 161.5111 15.72791288  2163"
      },
      "geometry": {
        "type": "Point",
        "coordinates": [
          -85.20633567290501,
          10.427679885741828
        ]
      }
    }
  ]
}